{
  "type": "FeatureCollection",
  "features": [
    {
      "type": "Feature",
      "properties": {
        "norad_id": 43823,
        "name": "GEO-KOMPSAT-2A",
        "group": "weather",
        "lat": 0.019678376268417938,
        "lon": 162.17611788653022,
        "alt_km": 35784.46726253978,
        "timestamp": "2025-12-14T20:40:31.410378+00:00",
        "meta_object_name": "GEO-KOMPSAT-2A",
        "meta_object_id": "2018-100A",
        "meta_epoch": "2025-12-14T07:10:48.313056",
        "meta_mean_motion": 1.00273123,
        "meta_eccentricity": 4.545e-05,
        "meta_inclination": 0.0416,
        "meta_ra_of_asc_node": 138.3538,
        "meta_arg_of_pericenter": 337.6228,
        "meta_mean_anomaly": 203.2195,
        "meta_ephemeris_type": 0,
        "meta_classification_type": "U",
        "meta_norad_cat_id": 43823,
        "meta_element_set_no": 999,
        "meta_rev_at_epoch": 2577,
        "meta_bstar": 0,
        "meta_mean_motion_dot": -3.26e-06,
        "meta_mean_motion_ddot": 0,
        "tle_line1": "1 43823U 18100A   25348.29917029 -.00000326  00000+0  00000+0 0  9991",
        "tle_line2": "2 43823   0.0416 138.3538 0000454 337.6228 203.2195  1.00273123 25770"
      },
      "geometry": {
        "type": "Point",
        "coordinates": [
          162.17611788653022,
          0.019678376268417938
        ]
      }
    },
    {
      "type": "Feature",
      "properties": {
        "norad_id": 44387,
        "name": "METEOR-M2 2",
        "group": "weather",
        "lat": 80.86853052423308,
        "lon": -108.4339715473999,
        "alt_km": 802.8595694766436,
        "timestamp": "2025-12-14T20:40:31.410390+00:00",
        "meta_object_name": "METEOR-M2 2",
        "meta_object_id": "2019-038A",
        "meta_epoch": "2025-12-14T08:27:43.196256",
        "meta_mean_motion": 14.24293739,
        "meta_eccentricity": 0.00013371,
        "meta_inclination": 98.8974,
        "meta_ra_of_asc_node": 328.1013,
        "meta_arg_of_pericenter": 144.3214,
        "meta_mean_anomaly": 215.8054,
        "meta_ephemeris_type": 0,
        "meta_classification_type": "U",
        "meta_norad_cat_id": 44387,
        "meta_element_set_no": 999,
        "meta_rev_at_epoch": 33498,
        "meta_bstar": 0.00024517133,
        "meta_mean_motion_dot": 5.2e-06,
        "meta_mean_motion_ddot": 0,
        "tle_line1": "1 44387U 19038A   25348.35258329  .00000520  00000+0  24517-3 0  9994",
        "tle_line2": "2 44387  98.8974 328.1013 0001337 144.3214 215.8054 14.24293739334980"
      },
      "geometry": {
        "type": "Point",
        "coordinates": [
          -108.4339715473999,
          80.86853052423308
        ]
      }
    },
    {
      "type": "Feature",
      "properties": {
        "norad_id": 47719,
        "name": "ARKTIKA-M 1",
        "group": "weather",
        "lat": 61.40807832833631,
        "lon": -164.2741742268941,
        "alt_km": 37144.61563851295,
        "timestamp": "2025-12-14T20:40:31.410406+00:00",
        "meta_object_name": "ARKTIKA-M 1",
        "meta_object_id": "2021-016A",
        "meta_epoch": "2025-12-09T14:03:23.859648",
        "meta_mean_motion": 2.00631311,
        "meta_eccentricity": 0.7202538,
        "meta_inclination": 63.1769,
        "meta_ra_of_asc_node": 84.4506,
        "meta_arg_of_pericenter": 269.1116,
        "meta_mean_anomaly": 15.6235,
        "meta_ephemeris_type": 0,
        "meta_classification_type": "U",
        "meta_norad_cat_id": 47719,
        "meta_element_set_no": 999,
        "meta_rev_at_epoch": 3498,
        "meta_bstar": 0,
        "meta_mean_motion_dot": -6.1e-07,
        "meta_mean_motion_ddot": 0,
        "tle_line1": "1 47719U 21016A   25343.58569282 -.00000061  00000+0  00000+0 0  9996",
        "tle_line2": "2 47719  63.1769  84.4506 7202538 269.1116  15.6235  2.00631311 34985"
      },
      "geometry": {
        "type": "Point",
        "coordinates": [
          -164.2741742268941,
          61.40807832833631
        ]
      }
    },
    {
      "type": "Feature",
      "properties": {
        "norad_id": 49008,
        "name": "FENGYUN 3E",
        "group": "weather",
        "lat": 13.304822821355126,
        "lon": -12.729074445232548,
        "alt_km": 827.0023746500847,
        "timestamp": "2025-12-14T20:40:31.410420+00:00",
        "meta_object_name": "FENGYUN 3E",
        "meta_object_id": "2021-062A",
        "meta_epoch": "2025-12-14T07:04:56.172576",
        "meta_mean_motion": 14.19879232,
        "meta_eccentricity": 5.651e-05,
        "meta_inclination": 98.748,
        "meta_ra_of_asc_node": 348.798,
        "meta_arg_of_pericenter": 253.9889,
        "meta_mean_anomaly": 106.1225,
        "meta_ephemeris_type": 0,
        "meta_classification_type": "U",
        "meta_norad_cat_id": 49008,
        "meta_element_set_no": 999,
        "meta_rev_at_epoch": 23034,
        "meta_bstar": -4.3798232e-05,
        "meta_mean_motion_dot": -1.37e-06,
        "meta_mean_motion_ddot": 0,
        "tle_line1": "1 49008U 21062A   25348.29509459 -.00000137  00000+0 -43798-4 0  9994",
        "tle_line2": "2 49008  98.7480 348.7980 0000565 253.9889 106.1225 14.19879232230343"
      },
      "geometry": {
        "type": "Point",
        "coordinates": [
          -12.729074445232548,
          13.304822821355126
        ]
      }
    },
    {
      "type": "Feature",
      "properties": {
        "norad_id": 51850,
        "name": "GOES 18",
        "group": "weather",
        "lat": 0.001298488634775499,
        "lon": -103.1079817578307,
        "alt_km": 35785.13382043738,
        "timestamp": "2025-12-14T20:40:31.410431+00:00",
        "meta_object_name": "GOES 18",
        "meta_object_id": "2022-021A",
        "meta_epoch": "2025-12-14T05:55:10.554816",
        "meta_mean_motion": 1.0027093,
        "meta_eccentricity": 5.013e-05,
        "meta_inclination": 0.02,
        "meta_ra_of_asc_node": 155.6685,
        "meta_arg_of_pericenter": 159.1299,
        "meta_mean_anomaly": 80.1672,
        "meta_ephemeris_type": 0,
        "meta_classification_type": "U",
        "meta_norad_cat_id": 51850,
        "meta_element_set_no": 999,
        "meta_rev_at_epoch": 473,
        "meta_bstar": 0,
        "meta_mean_motion_dot": 1.14e-06,
        "meta_mean_motion_ddot": 0,
        "tle_line1": "1 51850U 22021A   25348.24664994  .00000114  00000+0  00000+0 0  9996",
        "tle_line2": "2 51850   0.0200 155.6685 0000501 159.1299  80.1672  1.00270930  4731"
      },
      "geometry": {
        "type": "Point",
        "coordinates": [
          -103.1079817578307,
          0.001298488634775499
        ]
      }
    },
    {
      "type": "Feature",
      "properties": {
        "norad_id": 54234,
        "name": "NOAA 21 (JPSS-2)",
        "group": "weather",
        "lat": 16.948660992618514,
        "lon": -77.54586547306403,
        "alt_km": 825.9345787771717,
        "timestamp": "2025-12-14T20:40:31.410485+00:00",
        "meta_object_name": "NOAA 21 (JPSS-2)",
        "meta_object_id": "2022-150A",
        "meta_epoch": "2025-12-14T07:03:41.730336",
        "meta_mean_motion": 14.19524899,
        "meta_eccentricity": 0.00021654,
        "meta_inclination": 98.7463,
        "meta_ra_of_asc_node": 284.5831,
        "meta_arg_of_pericenter": 35.2352,
        "meta_mean_anomaly": 324.8967,
        "meta_ephemeris_type": 0,
        "meta_classification_type": "U",
        "meta_norad_cat_id": 54234,
        "meta_element_set_no": 999,
        "meta_rev_at_epoch": 16031,
        "meta_bstar": 8.9155095e-05,
        "meta_mean_motion_dot": 1.44e-06,
        "meta_mean_motion_ddot": 0,
        "tle_line1": "1 54234U 22150A   25348.29423299  .00000144  00000+0  89155-4 0  9990",
        "tle_line2": "2 54234  98.7463 284.5831 0002165  35.2352 324.8967 14.19524899160314"
      },
      "geometry": {
        "type": "Point",
        "coordinates": [
          -77.54586547306403,
          16.948660992618514
        ]
      }
    },
    {
      "type": "Feature",
      "properties": {
        "norad_id": 54743,
        "name": "METEOSAT-12 (MTG-I1)",
        "group": "weather",
        "lat": 0.13523310177997158,
        "lon": 33.635080645568586,
        "alt_km": 35791.27116693924,
        "timestamp": "2025-12-14T20:40:31.410499+00:00",
        "meta_object_name": "METEOSAT-12 (MTG-I1)",
        "meta_object_id": "2022-170C",
        "meta_epoch": "2025-12-14T06:33:51.850656",
        "meta_mean_motion": 1.00269445,
        "meta_eccentricity": 0.00016324,
        "meta_inclination": 0.6886,
        "meta_ra_of_asc_node": 23.8629,
        "meta_arg_of_pericenter": 238.3539,
        "meta_mean_anomaly": 279.1752,
        "meta_ephemeris_type": 0,
        "meta_classification_type": "U",
        "meta_norad_cat_id": 54743,
        "meta_element_set_no": 999,
        "meta_rev_at_epoch": 1112,
        "meta_bstar": 0,
        "meta_mean_motion_dot": 1e-07,
        "meta_mean_motion_ddot": 0,
        "tle_line1": "1 54743U 22170C   25348.27351679  .00000010  00000+0  00000+0 0  9996",
        "tle_line2": "2 54743   0.6886  23.8629 0001632 238.3539 279.1752  1.00269445 11127"
      },
      "geometry": {
        "type": "Point",
        "coordinates": [
          33.635080645568586,
          0.13523310177997158
        ]
      }
    }
  ]
}